244P/Scotti,e,2.2593,353.9975,93.1578,4.897413,0.0909398,0.19947105,16.4914,05/18.0/2023,2000,g  9.0,4.0
# From MPEC 2022-CN4
245P/WISE,e,21.1851,316.6705,316.8347,4.048180,0.1210081,0.45596284,233.1400,05/18.0/2023,2000,g 14.0,4.0
# From MPEC 2023-A50
246P/NEAT,e,16.0902,77.4892,178.4315,4.043897,0.1212004,0.29058606,98.0310,05/18.0/2023,2000,g 10.5,4.0
# From MPEC 2021-F20
247P/LINEAR,e,13.6593,54.0315,47.4030,3.966950,0.1247438,0.62487139,203.1362,05/18.0/2023,2000,g 16.5,2.0
# From MPC 75730
248P/Gibbs,e,6.3512,207.8123,209.8836,5.988835,0.0672497,0.63921722,302.7767,05/18.0/2023,2000,g 14.0,4.0
# From MPEC 2022-YN2
249P/LINEAR,e,8.3860,239.0673,65.7458,2.763866,0.2145006,0.81958411,225.8037,05/18.0/2023,2000,g 15.5,4.0
# From MPC110497
250P/Larson,e,13.1507,73.3423,46.0609,3.769956,0.1346479,0.39881485,261.6119,05/18.0/2023,2000,g 14.5,4.0
# From MPC104795
251P/LINEAR,e,23.3864,219.3434,31.2406,3.513570,0.1496515,0.50448302,319.4058,05/18.0/2023,2000,g 16.5,2.0
# From MPEC 2021-S45
252P/LINEAR,e,10.4144,190.9110,343.4017,3.051169,0.1849288,0.67102962,125.0380,05/18.0/2023,2000,g 17.5,4.0
# From MPEC 2020-FB5
253P/PANSTARRS,e,4.9435,146.8739,230.7407,3.463845,0.1528855,0.41460127,280.2164,05/18.0/2023,2000,g 14.5,4.0
# From MPEC 2023-FK0
254P/McNaught,e,32.5620,129.1870,219.6861,4.616520,0.0993647,0.31953175,95.3562,05/18.0/2023,2000,g 11.0,4.0
# From MPEC 2021-UA9
255P/Levy,e,13.4120,275.6573,186.0142,2.942238,0.1952933,0.71157748,49.3495,05/18.0/2023,2000,g 14.1,4.0
# From MPEC 2023-J29
256P/LINEAR,e,27.6198,81.3285,124.1897,4.639655,0.0986224,0.41799622,6.5858,05/18.0/2023,2000,g 14.0,2.0
# From MPEC 2023-A50
257P/Catalina,e,20.2197,207.7144,117.7743,3.764790,0.1349252,0.42982426,132.1626,05/18.0/2023,2000,g 11.5,4.0
# From MPEC 2021-U31
258P/PANSTARRS,e,6.7476,126.2343,25.7128,4.393288,0.1070335,0.20854623,113.9638,05/18.0/2023,2000,g 13.0,4.0
# From MPC106349
259P/Garradd,e,15.8974,51.4325,257.5196,2.729038,0.2186199,0.33887536,101.4105,05/18.0/2023,2000,g 15.5,4.0
# From MPEC 2022-O01
260P/McNaught,e,15.0538,349.3331,18.4579,3.623376,0.1429006,0.60930798,192.2036,05/18.0/2023,2000,g 13.5,4.0
# From MPEC 2021-J28
261P/Larson,e,6.0718,291.0978,67.2901,3.490537,0.1511352,0.42326350,215.8340,05/18.0/2023,2000,g 14.0,4.0
# From MPC 82322
262P/McNaught-Russell,e,29.2958,217.8625,171.0666,6.871119,0.0547221,0.81634230,208.6954,05/18.0/2023,2000,g 13.5,4.0
# From MPEC 2023-J95
263P/Gibbs,e,11.5216,105.5068,35.0488,3.041895,0.1857752,0.59357408,19.9548,05/18.0/2023,2000,g 18.0,4.0
# From MPC114608
264P/Larsen,e,25.7747,219.8751,346.5773,3.882082,0.1288567,0.37672827,178.9187,05/18.0/2023,2000,g 13.0,4.0
# From MPC 79870
265P/LINEAR,e,14.3598,342.9265,33.5021,4.257242,0.1122048,0.64756939,92.8811,05/18.0/2023,2000,g 14.5,4.0
# From MPEC 2021-F20
266P/Christensen,e,3.4269,4.9863,97.6718,3.530903,0.1485509,0.34011477,166.8928,05/18.0/2023,2000,g 14.7,4.0
# From MPC114608
267P/LONEOS,e,6.1442,228.5651,114.2487,3.210302,0.1713504,0.61433651,301.2647,05/18.0/2023,2000,g 19.5,4.0
# From MPC 92277
268P/Bernardi,e,15.6701,126.1172,359.8362,4.593047,0.1001273,0.47662223,301.8635,05/18.0/2023,2000,g 14.0,4.0
# From MPEC 2023-J29
269P/Jedicke,e,7.0822,241.7553,225.6773,7.066771,0.0524653,0.43193959,165.3160,05/18.0/2023,2000,g 10.0,4.0
# From MPC 88332
270P/Gehrels,e,2.9248,223.0426,209.7711,6.657025,0.0573831,0.46932837,208.0733,05/18.0/2023,2000,g  8.0,4.0
# From MPC 92277
271P/van Houten-Lemmon,e,6.8714,9.3125,36.4478,7.035102,0.0528200,0.39589133,189.5565,05/18.0/2023,2000,g 11.0,4.0
# From MPEC 2023-D41
272P/NEAT,e,18.0730,109.4596,27.8935,4.461907,0.1045739,0.45494062,31.8920,05/18.0/2023,2000,g 16.0,2.0
# From MPC 82723
273P/Pons-Gambart,e,136.6359,320.3902,20.2803,31.98632,0.0054483,0.97442133,0.0000,12/22.2102/2012,2000,g 11.5,4.0
# From MPEC 2023-J95
274P/Tombaugh-Tenagra,e,15.8161,81.3259,38.4746,4.377599,0.1076094,0.43967579,43.5297,05/18.0/2023,2000,g 13.0,4.0
# From MPC 81862
275P/Hermann,e,21.2663,348.7503,173.9326,5.781938,0.0708915,0.71306603,270.6422,05/18.0/2023,2000,g 17.0,4.0
# From MPEC 2023-J29
276P/Vorobjov,e,14.8120,211.3419,199.4536,5.327552,0.0801517,0.26827543,313.9597,05/18.0/2023,2000,g 11.5,4.0
# From MPEC 2021-F20
277P/LINEAR,e,16.7808,276.2949,152.3481,3.853534,0.1302913,0.50623818,113.1570,05/18.0/2023,2000,g 15.1,4.0
# From MPEC 2021-S45
278P/McNaught,e,6.6945,15.3705,237.5325,3.679791,0.1396270,0.43745936,136.5987,05/18.0/2023,2000,g 14.0,4.0
# From MPEC 2022-K19
279P/LaSagra,e,5.0517,346.2325,5.8497,3.574899,0.1458171,0.39911239,4.1475,05/18.0/2023,2000,g 14.0,4.0
# From MPEC 2023-J95
280P/Larsen,e,11.7720,131.3832,104.7409,4.530042,0.1022235,0.41718938,351.9514,05/18.0/2023,2000,g 12.5,4.0
# From MPEC 2023-D41
281P/MOSS,e,4.7180,87.1772,26.6566,4.878851,0.0914593,0.17306765,9.6460,05/18.0/2023,2000,g 11.0,4.0
# From MPC133426
282P/,e,5.8118,9.2944,217.6078,4.237849,0.1129759,0.18795841,64.4668,05/18.0/2023,2000,g 13.5,2.0
# From MPEC 2022-K19
283P/Spacewatch,e,14.4561,161.1257,22.2077,4.134971,0.1172183,0.48439640,72.3452,05/18.0/2023,2000,g 16.0,2.0
# From MPEC 2023-D41
284P/McNaught,e,11.8605,144.2651,202.4427,3.676410,0.1398197,0.37525791,85.6345,05/18.0/2023,2000,g 13.0,4.0
# From MPEC 2023-B57
285P/LINEAR,e,25.0377,185.5060,178.4024,4.509049,0.1029382,0.61871683,12.9458,05/18.0/2023,2000,g 15.0,4.0
# From MPEC 2022-X67
286P/Christensen,e,17.0447,283.8212,24.9067,4.113290,0.1181463,0.42641939,43.7696,05/18.0/2023,2000,g 14.0,4.0
# From MPEC 2023-A50
287P/Christensen,e,16.3216,139.0428,189.1283,4.163712,0.1160067,0.27128295,354.3056,05/18.0/2023,2000,g 13.5,4.0
# From MPC133426
288P/,e,3.2383,83.1232,280.2097,3.048188,0.1852002,0.20044969,81.9273,05/18.0/2023,2000,g 16.0,2.0
# From MPEC 2023-HD1
289P/Blanpain,e,5.8996,68.8886,9.8418,3.045235,0.1854697,0.68614740,230.6472,05/18.0/2023,2000,g 19.7,4.0
# From MPC 95214
290P/Jager,e,20.0287,302.6640,181.8414,6.217446,0.0635749,0.62728553,216.3630,05/18.0/2023,2000,g 10.5,4.0
# From MPEC 2023-J29
291P/NEAT,e,6.3089,237.6580,173.5233,4.538098,0.1019514,0.43472820,1.4168,05/18.0/2023,2000,g 13.0,4.0
# From MPEC 2022-K19
292P/Li,e,24.2989,90.9172,319.5531,6.101084,0.0654024,0.58973930,221.6329,05/18.0/2023,2000,g 12.5,4.0
# From MPEC 2022-L66
293P/Spacewatch,e,9.0608,78.3992,40.9352,3.640426,0.1418978,0.41858484,124.8402,05/18.0/2023,2000,g 14.5,4.0
# From MPEC 2020-SI8
294P/LINEAR,e,17.7747,310.6945,236.7232,3.186872,0.1732435,0.60343775,218.7419,05/18.0/2023,2000,g 15.5,4.0
# From MPEC 2022-K19
295P/LINEAR,e,21.0746,7.4292,72.9039,5.304342,0.0806783,0.61721356,266.2509,05/18.0/2023,2000,g 12.0,4.0
# From MPEC 2021-N06
296P/Garradd,e,25.2559,263.5433,349.9661,3.491141,0.1510960,0.47904717,146.9649,05/18.0/2023,2000,g 14.0,4.0
# From MPC102956
297P/Beshore,e,10.3265,95.7228,135.8852,3.471169,0.1524019,0.32108862,127.7897,05/18.0/2023,2000,g 15.0,4.0
# From MPC114609
298P/Christensen,e,7.8706,52.8170,100.6152,3.589926,0.1449025,0.38624617,142.6169,05/18.0/2023,2000,g 15.0,4.0
# From MPEC 2023-HD1
299P/Catalina-PANSTARRS,e,10.4672,271.5965,323.7378,4.388873,0.1071950,0.28092998,322.6257,05/18.0/2023,2000,g 13.1,4.0
# From MPEC 2023-J95
300P/Catalina,e,5.6741,95.6209,222.9572,2.698824,0.2223014,0.69169236,8.1996,05/18.0/2023,2000,g 16.0,4.0
# From MPC 89014
301P/LINEAR-NEAT,e,10.3362,351.1647,193.5262,5.741704,0.0716379,0.58557886,228.9015,05/18.0/2023,2000,g 13.0,4.0
# From MPEC 2023-J29
302P/Lemmon-PANSTARRS,e,6.0336,121.7267,208.5116,4.272494,0.1116046,0.23017620,286.2601,05/18.0/2023,2000,g 12.5,4.0
# From MPC 92278
303P/NEAT,e,7.0192,347.9604,356.9995,5.043275,0.0870232,0.51082949,272.2433,05/18.0/2023,2000,g 13.5,4.0
# From MPEC 2022-K19
304P/Ory,e,2.6075,58.9075,335.2719,3.150691,0.1762363,0.60096673,177.6345,05/18.0/2023,2000,g 16.5,4.0
# From MPC101100
305P/Skiff,e,11.6691,240.1033,147.3814,4.639151,0.0986385,0.69400425,305.8380,05/18.0/2023,2000,g 18.0,4.0
# From MPC 92278
306P/LINEAR,e,8.3075,341.3718,0.8915,3.124271,0.1784765,0.59304182,216.0902,05/18.0/2023,2000,g 19.0,4.0
# From MPC 92278
307P/LINEAR,e,4.4349,158.1573,222.1815,5.789166,0.0707587,0.67555479,216.8378,05/18.0/2023,2000,g 15.0,4.0
# From MPEC 2022-C56
308P/Lagerkvist-Carsenty,e,4.8549,63.0377,333.6924,6.599674,0.0581327,0.36465703,170.2081,05/18.0/2023,2000,g 13.0,2.0
# From MPC 94284
309P/LINEAR,e,17.0241,10.1434,49.9438,4.373534,0.1077594,0.61825852,325.9403,05/18.0/2023,2000,g 15.0,4.0
# From MPEC 2022-QD9
310P/Hill,e,13.1271,8.9222,31.6791,4.185751,0.1150917,0.42271577,341.7109,05/18.0/2023,2000,g 13.5,4.0
# From MPEC 2021-BE3
311P/PANSTARRS,e,4.9697,279.2073,144.4448,2.188456,0.3044370,0.11592092,290.1409,05/18.0/2023,2000,g 17.0,4.0
# From MPEC 2021-BE3
312P/NEAT,e,19.7610,144.6699,207.6701,3.470020,0.1524776,0.42758299,147.1139,05/18.0/2023,2000,g 16.0,4.0
# From MPEC 2021-S45
313P/Gibbs,e,10.9786,105.9478,254.8807,3.164207,0.1751083,0.23489037,197.3101,05/18.0/2023,2000,g 15.0,4.0
# From MPC105243
314P/Montani,e,3.9872,267.6078,213.9010,7.256192,0.0504244,0.41703614,121.6685,05/18.0/2023,2000,g  9.5,4.0
# From MPEC 2023-J29
315P/LONEOS,e,17.7339,68.7486,65.7548,4.939794,0.0897720,0.52113593,212.3405,05/18.0/2023,2000,g 11.0,4.0
# From MPC 92279
316P/LONEOS-Christensen,e,9.8322,246.1626,191.2988,4.392464,0.1070636,0.15632521,302.5337,05/18.0/2023,2000,g 13.5,4.0
# From MPEC 2020-C98
317P/WISE,e,11.9561,275.4770,334.8248,2.962101,0.1933322,0.57071282,186.4152,05/18.0/2023,2000,g 17.5,4.0
# From MPC102103
318P/McNaught-Hartley,e,17.8894,35.5016,313.3515,7.506270,0.0479256,0.67488554,132.3139,05/18.0/2023,2000,g  8.5,6.0
# From MPC 97499
319P/Catalina-McNaught,e,15.0956,111.3613,203.6566,3.564590,0.1464501,0.66649743,60.4305,05/18.0/2023,2000,g 15.0,4.0
# From MPC 96281
320P/McNaught,e,4.9044,295.9491,0.7832,3.094480,0.1810601,0.68512650,154.1230,05/18.0/2023,2000,g 20.5,4.0
# From MPC105243
321P/SOHO,e,20.0784,165.0179,172.7448,2.423042,0.2613141,0.98106977,0.0000,10/26.6074/2023,2000,g 20.0,4.0
# From MPC102103
